NORAD_CAT_ID,OBJECT_NAME,OBJECT_TYPE,EPOCH,MEAN_MOTION,ECCENTRICITY,INCLINATION,RA_OF_ASC_NODE,ARG_OF_PERICENTER,MEAN_ANOMALY,BSTAR,MEAN_MOTION_DOT,MEAN_MOTION_DDOT,TLE_LINE0,TLE_LINE1,TLE_LINE2,SEMIMAJOR_AXIS,PERIOD,APOGEE,PERIGEE,DECAYED
52616.0,STARLINK-4015,PAYLOAD,2024-08-07 16:21:39,15.08857296,0.0001357,53.217,348.3925,89.9434,270.1714,0.00056568,8.731e-05,0.0,0 STARLINK-4015,1 52616U 22052U   24220.68170815  .00008731  00000-0  56568-3 0  9999,2 52616  53.2170 348.3925 0001357  89.9434 270.1714 15.08857296123950,6917.828,95.436,540.631,538.754,0.0
52616.0,STARLINK-4015,PAYLOAD,2024-08-08 13:01:40,15.08845784,0.0001443,53.2178,344.5271,95.8936,264.222,0.00016147,2.283e-05,0.0,0 STARLINK-4015,1 52616U 22052U   24221.54282577  .00002283  00000-0  16147-3 0  9999,2 52616  53.2178 344.5271 0001443  95.8936 264.2220 15.08845784123718,6917.863,95.437,540.726,538.729,0.0
52616.0,STARLINK-4015,PAYLOAD,2024-08-08 14:37:03,15.08845231,0.0001426,53.2163,344.2293,86.108,274.0075,6.1465e-05,6.91e-06,0.0,0 STARLINK-4015,1 52616U 22052U   24221.60906732  .00000691  00000-0  61465-4 0  9997,2 52616  53.2163 344.2293 0001426  86.1080 274.0075 15.08845231124093,6917.864,95.437,540.716,538.743,0.0
52616.0,STARLINK-4015,PAYLOAD,2024-08-09 14:27:50,15.08846388,0.0001348,53.2173,339.7659,87.6559,272.4587,9.4276e-05,1.213e-05,0.0,0 STARLINK-4015,1 52616U 22052U   24222.60266312  .00001213  00000-0  94276-4 0  9998,2 52616  53.2173 339.7659 0001348  87.6559 272.4587 15.08846388123878,6917.861,95.437,540.658,538.793,0.0
52616.0,STARLINK-4015,PAYLOAD,2024-08-10 12:43:14,15.0884017,0.0001337,53.2172,335.6027,79.2727,280.8415,6.8079e-06,-1.8e-06,0.0,0 STARLINK-4015,1 52616U 22052U   24223.53002522 -.00000180  00000-0  68079-5 0  9998,2 52616  53.2172 335.6027 0001337  79.2727 280.8415 15.08840170124386,6917.88,95.438,540.67,538.82,0.0
52616.0,STARLINK-4015,PAYLOAD,2024-08-10 17:29:23,15.08843221,0.0001353,53.2172,334.7102,80.5289,279.5856,4.4592e-05,4.22e-06,0.0,0 STARLINK-4015,1 52616U 22052U   24223.72874323  .00000422  00000-0  44592-4 0  9996,2 52616  53.2172 334.7102 0001353  80.5289 279.5856 15.08843221124043,6917.871,95.437,540.672,538.8,0.0
52616.0,STARLINK-4015,PAYLOAD,2024-08-11 14:09:25,15.08820429,0.0001282,53.2185,330.8429,92.4101,267.7038,0.00032044,4.813e-05,0.0,0 STARLINK-4015,1 52616U 22052U   24224.58987343  .00004813  00000-0  32044-3 0  9994,2 52616  53.2185 330.8429 0001282  92.4101 267.7038 15.08820429124543,6917.94,95.439,540.692,538.918,0.0
52616.0,STARLINK-4015,PAYLOAD,2024-08-11 23:41:40,15.08873325,4.18e-05,53.2186,329.0626,82.6631,277.4409,0.00035722,5.407e-05,0.0,0 STARLINK-4015,1 52616U 22052U   24224.98727669  .00005407  00000-0  35722-3 0  9997,2 52616  53.2186 329.0626 0000418  82.6631 277.4409 15.08873325124602,6917.779,95.435,539.933,539.354,0.0
52616.0,STARLINK-4015,PAYLOAD,2024-08-12 07:38:41,15.08812434,0.0001402,53.2182,327.5779,90.0733,270.042,-0.00023325,-3.995e-05,0.0,0 STARLINK-4015,1 52616U 22052U   24225.31853152 -.00003995  00000-0 -23325-3 0  9990,2 52616  53.2182 327.5779 0001402  90.0733 270.0420 15.08812434124651,6917.965,95.439,540.8,538.86,0.0
52616.0,STARLINK-4015,PAYLOAD,2024-08-12 14:00:11,15.08841658,8.13e-05,53.2179,326.3845,40.2078,319.8975,0.00010622,1.403e-05,0.0,0 STARLINK-4015,1 52616U 22052U   24225.58346755  .00001403  00000-0  10622-3 0  9991,2 52616  53.2179 326.3845 0000813  40.2078 319.8975 15.08841658124323,6917.875,95.437,540.303,539.178,0.0
52616.0,STARLINK-4015,PAYLOAD,2024-08-13 10:40:12,15.08829407,3.47e-05,53.2181,322.5222,99.6006,260.5025,-0.00067428,-0.00010999,0.0,0 STARLINK-4015,1 52616U 22052U   24226.44459430 -.00010999  00000-0 -67428-3 0  9990,2 52616  53.2181 322.5222 0000347  99.6006 260.5025 15.08829407124825,6917.913,95.438,540.018,539.538,0.0
52616.0,STARLINK-4015,PAYLOAD,2024-08-13 17:01:45,15.08829726,5.57e-05,53.214,321.3296,109.5545,250.5507,-0.00059699,-9.773e-05,0.0,0 STARLINK-4015,1 52616U 22052U   24226.70955515 -.00009773  00000-0 -59699-3 0  9993,2 52616  53.2140 321.3296 0000557 109.5545 250.5507 15.08829726124491,6917.912,95.438,540.162,539.391,0.0
52616.0,STARLINK-4015,PAYLOAD,2024-08-13 23:23:17,15.08840625,2.6e-06,53.2207,320.1415,144.1619,215.9375,-0.00026213,-4.457e-05,0.0,0 STARLINK-4015,1 52616U 22052U   24226.97451073 -.00004457  00000-0 -26213-3 0  9992,2 52616  53.2207 320.1415 0000026 144.1619 215.9375 15.08840625124908,6917.878,95.438,539.761,539.725,0.0
52616.0,STARLINK-4015,PAYLOAD,2024-08-14 13:41:45,15.0885244,8.09e-05,53.2167,317.4643,59.7625,300.3447,0.00024948,3.686e-05,0.0,0 STARLINK-4015,1 52616U 22052U   24227.57067097  .00003686  00000-0  24948-3 0  9992,2 52616  53.2167 317.4643 0000809  59.7625 300.3447 15.08852440124628,6917.842,95.437,540.267,539.148,0.0
52616.0,STARLINK-4015,PAYLOAD,2024-08-14 23:14:04,15.08858508,6.68e-05,53.217,315.6828,58.9819,301.1238,0.00033569,5.062e-05,0.0,0 STARLINK-4015,1 52616U 22052U   24227.96810687  .00005062  00000-0  33569-3 0  9995,2 52616  53.2170 315.6828 0000668  58.9819 301.1238 15.08858508124680,6917.824,95.436,540.151,539.227,0.0
52616.0,STARLINK-4015,PAYLOAD,2024-08-15 23:04:52,15.0884226,0.000164,53.2174,311.2204,110.9018,249.2149,0.00016965,2.413e-05,0.0,0 STARLINK-4015,1 52616U 22052U   24228.96171635  .00002413  00000-0  16965-3 0  9997,2 52616  53.2174 311.2204 0001640 110.9018 249.2149 15.08842260125205,6917.873,95.437,540.873,538.604,0.0
52616.0,STARLINK-4015,PAYLOAD,2024-08-16 10:12:34,15.08840892,0.0001491,53.217,309.1345,120.239,239.875,0.00025688,3.803e-05,0.0,0 STARLINK-4015,1 52616U 22052U   24229.42539634  .00003803  00000-0  25688-3 0  9992,2 52616  53.2170 309.1345 0001491 120.2390 239.8750 15.08840892124902,6917.878,95.437,540.774,538.711,0.0
52616.0,STARLINK-4015,PAYLOAD,2024-08-17 05:17:12,15.08831891,0.0001956,53.2157,305.565,123.7873,236.3305,0.0003552,5.368e-05,0.0,0 STARLINK-4015,1 52616U 22052U   24230.22027940  .00005368  00000-0  35520-3 0  9998,2 52616  53.2157 305.5650 0001956 123.7873 236.3305 15.08831891125397,6917.905,95.438,541.123,538.417,0.0
52616.0,STARLINK-4015,PAYLOAD,2024-08-17 10:03:21,15.0881859,0.0001949,53.2165,304.6718,131.4382,228.6777,0.00046217,7.071e-05,0.0,0 STARLINK-4015,1 52616U 22052U   24230.41900446  .00007071  00000-0  46217-3 0  9998,2 52616  53.2165 304.6718 0001949 131.4382 228.6777 15.08818590125426,6917.946,95.439,541.159,538.463,0.0
52616.0,STARLINK-4015,PAYLOAD,2024-08-18 05:07:58,15.0883984,0.0001697,53.2168,301.1058,119.0787,241.0376,9.6023e-05,1.24e-05,0.0,0 STARLINK-4015,1 52616U 22052U   24231.21387451  .00001240  00000-0  96023-4 0  9995,2 52616  53.2168 301.1058 0001697 119.0787 241.0376 15.08839840125547,6917.881,95.438,540.92,538.572,0.0
52616.0,STARLINK-4015,PAYLOAD,2024-08-18 11:29:31,15.0884687,0.00015,53.2163,299.9189,99.2292,260.887,0.0001772,2.534e-05,0.0,0 STARLINK-4015,1 52616U 22052U   24231.47883229  .00002534  00000-0  17720-3 0  9990,2 52616  53.2163 299.9189 0001500  99.2292 260.8870 15.08846870125217,6917.859,95.437,540.762,538.687,0.0
52616.0,STARLINK-4015,PAYLOAD,2024-08-19 11:20:19,15.08828387,0.000143,53.2162,295.4606,81.6243,278.4911,-5.0372e-05,-1.089e-05,0.0,0 STARLINK-4015,1 52616U 22052U   24232.47244228 -.00001089  00000-0 -50372-4 0  9998,2 52616  53.2162 295.4606 0001430  81.6243 278.4911 15.08828387125735,6917.916,95.438,540.77,538.792,0.0
52616.0,STARLINK-4015,PAYLOAD,2024-08-19 12:55:42,15.08829321,0.0001469,53.2163,295.1633,82.2016,277.9143,-3.6115e-05,-8.62e-06,0.0,0 STARLINK-4015,1 52616U 22052U   24232.53868232 -.00000862  00000-0 -36115-4 0  9999,2 52616  53.2163 295.1633 0001469  82.2016 277.9143 15.08829321125370,6917.913,95.438,540.794,538.762,0.0
52616.0,STARLINK-4015,PAYLOAD,2024-08-20 09:35:42,15.08843549,0.0001445,53.2156,291.2967,79.9069,280.2086,0.00010487,1.382e-05,0.0,0 STARLINK-4015,1 52616U 22052U   24233.39979728  .00001382  00000-0  10487-3 0  9996,2 52616  53.2156 291.2967 0001445  79.9069 280.2086 15.08843549125870,6917.87,95.437,540.734,538.735,0.0
52616.0,STARLINK-4015,PAYLOAD,2024-08-21 11:01:53,15.08839227,0.0001509,53.2148,286.539,72.5271,287.5886,0.00016491,2.337e-05,0.0,0 STARLINK-4015,1 52616U 22052U   24234.45964155  .00002337  00000-0  16491-3 0  9994,2 52616  53.2148 286.5390 0001509  72.5271 287.5886 15.08839227126038,6917.883,95.438,540.792,538.704,0.0
52616.0,STARLINK-4015,PAYLOAD,2024-08-21 20:34:11,15.08841957,0.0001485,53.2148,284.7559,84.8813,275.2349,0.00013705,1.894e-05,0.0,0 STARLINK-4015,1 52616U 22052U   24234.85707990  .00001894  00000-0  13705-3 0  9992,2 52616  53.2148 284.7559 0001485  84.8813 275.2349 15.08841957125722,6917.874,95.437,540.767,538.712,0.0
